ARIANE 2 DEB            
1 27042U 89006X   25067.41158940 -.00000229  00000+0  18084-2 0  9996
2 27042   8.1659  69.1499 7114615 102.7788   6.6266  2.25257234 91000
ARIANE 2 DEB            
1 27043U 89006Y   25063.38555867 -.00000110  00000+0  26262-2 0  9994
2 27043   8.1058  85.3082 7110144  71.6487   8.6913  2.25052119193936
ARIANE 2 DEB            
1 27046U 89006AB  25067.89514829  .00000344  00000+0  11487-1 0  9990
2 27046   7.2467 158.8733 7098618 290.9332 352.9218  2.24281100195060
USA 164 (MILSTAR-2 3)   
1 27168U 02001A   25068.07267227  .00000086  00000+0  00000+0 0  9993
2 27168  10.6248  24.5232 0099749   4.4583 183.0781  1.00270865 26989
TITAN 4 CENTAUR R/B     
1 27169U 02001B   25066.67494658 -.00000159  00000+0  00000+0 0  9990
2 27169   9.4713  32.3527 0049811 123.7799 236.7387  1.00215880 21705
ARIANE 42L R/B          
1 27299U 02002B   25066.99390645  .00000523  00000+0  30066-2 0  9993
2 27299   4.1611 279.5367 7247562 114.9632 332.9866  2.21928616186438
ECHOSTAR 7              
1 27378U 02006A   25067.82519769 -.00000198  00000+0  00000+0 0  9999
2 27378   2.8107  83.1859 0003975 258.7182 106.8947  0.99848742 45890
INTELSAT 904 (IS-904)   
1 27380U 02007A   25067.82233064 -.00000230  00000+0  00000+0 0  9991
2 27380   5.7512  74.7387 0003140 277.9813  80.5679  1.00273730 47091
SL-12 R/B(2)            
1 27404U 02016B   25067.29200721 -.00000114  00000+0  00000+0 0  9994
2 27404  25.5328  47.7301 6226014  21.7408 355.9057  2.06291393172895
DIRECTV 5 (TEMPO 1)     
1 27426U 02023A   25067.47145046 -.00000072  00000+0  00000+0 0  9997
2 27426   3.6834  81.1414 0003537 273.5171 231.3474  1.00272126 83455
SL-12 R/B(2)            
1 27429U 02023D   25067.43705646 -.00000094  00000+0  00000+0 0  9998
2 27429  17.8473 250.9893 5322402 331.2610 282.7298  1.90580349159064
INTELSAT 905 (IS-905)   
1 27438U 02027A   25064.33100361 -.00000284  00000+0  00000+0 0  9992
2 27438   5.5691  75.4209 0003934 269.5744 256.4341  0.99892540 83265
GALAXY 3C (G-3C)        
1 27445U 02030A   25066.40183660 -.00000165  00000+0  00000+0 0  9995
2 27445   2.5289  84.0060 0002406  53.1606  77.9902  1.00273406 41812
BLOCK DM-SL R/B         
1 27446U 02030B   25067.03272160  .00000282  00000+0  11691-2 0  9990
2 27446   0.6911 312.0226 7493155 192.9664 301.9991  1.95949790161552
ARIANE 5 R/B            
1 27462U 02035C   25067.92748387 -.00000182  00000+0  19213-2 0  9998
2 27462   5.4316 278.5165 7161312  87.5348   9.6896  2.22706287184571
SL-12 R/B(2)            
1 27504U 02039B   25067.12950672  .00000068  00000+0  00000+0 0  9996
2 27504  21.7983 214.0678 5997288  92.6283 332.9821  2.01830454166149
ARIANE 5 DEB [SYLDA]    
1 27511U 02040D   25067.79409454  .00000257  00000+0  34340-2 0  9993
2 27511   5.5684 268.4789 7164302 192.4038 179.3134  2.25731586185348
INTELSAT 906 (IS-906)   
1 27513U 02041A   25068.19806542 -.00000002  00000+0  00000+0 0  9992
2 27513   4.6163  78.6525 0003094 249.2807 334.6321  1.00271033 82303
HISPASAT 30W-4          
1 27528U 02044A   25067.83377110 -.00000024  00000+0  00000+0 0  9999
2 27528   5.3613  76.0809 0045371 131.4921 291.9689  0.98928840 82142
INTEGRAL                
1 27540U 02048A   25061.01365912  .00000285  00000+0  00000+0 0  9996
2 27540  90.9361   8.9528 8608969 274.5012   5.0938  0.37579353 24853
EUTELSAT 33B            
1 27554U 02051A   25067.91402138 -.00000359  00000+0  00000+0 0  9995
2 27554   7.8676  64.8523 0013937 314.2705 245.3796  1.00276262 44136
TDRS 10                 
1 27566U 02055A   25067.34970059  .00000074  00000+0  00000+0 0  9994
2 27566  10.2611  45.3469 0010195 302.8461 132.9813  1.00271349 81564
ARIANE 2 DEB            
1 27625U 88098H   25067.78566714  .00000099  00000+0  41916-1 0  9998
2 27625   3.9266  71.9873 7250684  21.4320  49.9341  2.00968569165534
NIMIQ 2                 
1 27632U 02062A   25068.02080696 -.00000082  00000+0  00000+0 0  9991
2 27632   8.3617  61.6470 0006367 283.8160  79.7857  1.00271764 81203
BREEZE-M R/B            
1 27633U 02062B   25067.46867666 -.00000117  00000+0  00000+0 0  9998
2 27633  17.1578  42.1118 4910667   2.2939  41.9371  1.83740425148953
ARIANE 3 DEB            
1 27648U 84081F   25044.25122558 -.00000071  00000+0 -83221-2 0  9990
2 27648   4.5537 198.0638 7183055 252.3014  22.8672  2.10264068196174
ARIANE 2 DEB            
1 27649U 89006AD  25066.35441588 -.00000007  00000+0  00000+0 0  9994
2 27649   8.6417   8.1646 6976320 234.1764  70.9498  2.22849186 95420
USA 167                 
1 27691U 03008A   25068.01828743 -.00000008  00000+0  00000+0 0  9997
2 27691  10.0324  47.3932 0004410 288.8645  75.3743  1.00274434 26962
IABS R/B                
1 27693U 03008C   25066.78819347 -.00000297  00000+0  00000+0 0  9991
2 27693  13.1607  13.7573 0026919 222.9070 136.8881  1.01123060 21903
USA 169 (MILSTAR-2 4)   
1 27711U 03012A   25067.68030948 -.00000209  00000+0  00000+0 0  9992
2 27711  11.6391  33.4532 0099460   6.3209 163.9127  1.00271639 26971
TITAN 4 CENTAUR R/B     
1 27712U 03012B   25067.22413411 -.00000260  00000+0  00000+0 0  9990
2 27712  10.5882  25.9860 0023467 267.6643  92.0942  1.00576519 21105
INSAT-3A                
1 27714U 03013A   25068.11874369  .00000062  00000+0  00000+0 0  9994
2 27714   7.7056  65.9990 0011013 298.3798 230.0454  0.99806114 80147
ARIANE 5 R/B            
1 27716U 03013C   25067.90950568  .00000020  00000+0  26794-2 0  9993
2 27716   1.9000  15.6951 7074011  89.6948  74.3450  2.24035355179409
ARIANE 5 DEB [SYLDA]    
1 27717U 03013D   25067.90819287  .00000246  00000+0  11993-1 0  9990
2 27717   2.1125  29.9177 7087509  49.8898 157.8571  2.22483193178165
ASIASAT 4               
1 27718U 03014A   25067.86780766 -.00000238  00000+0  00000+0 0  9993
2 27718   3.5101  81.6246 0002655 255.8502 289.2842  1.00272485 80258
ARIANE 1 DEB            
1 27732U 79104S   25058.24360021  .00000681  00000+0  35119-1 0  9994
2 27732  15.4008 136.1952 7340737 301.5929   7.2173  1.93170228 76868
COSMOS 2397             
1 27775U 03015A   25067.15669705 -.00000148  00000+0  00000+0 0  9998
2 27775  12.1782  23.3521 0041839 358.2467 181.7317  1.00456901 80234
SL-12 R/B(2)            
1 27780U 03015F   25067.04838727  .00000119  00000+0  00000+0 0  9991
2 27780  12.2219  23.6853 0010372  31.3612 158.2057  1.00334457 79820
ATLAS AGENA R/B         
1 27785U 68063B   25066.46476867 -.00000329  00000+0  00000+0 0  9992
2 27785   5.5737 273.8613 1032050 249.1771  99.2637  1.01775808 21635
ATLAS AGENA R/B         
1 27786U 69036B   25067.00958082 -.00000171  00000+0  00000+0 0  9994
2 27786  13.7473  31.2610 1067540 236.2221 113.1997  1.03854015 21978
ATLAS AGENA R/B         
1 27787U 70069B   25067.11943006 -.00000275  00000+0  00000+0 0  9990
2 27787  10.9882 147.7272 1237388 169.5550 193.2650  1.01707364 22272
COSMOS 1261 DEB         
1 27796U 81031H   25067.50803959  .00000452  00000+0  00000+0 0  9992
2 27796  65.4927  44.6047 6933120  23.4376 356.7430  2.01777072176454
COSMOS 1285 DEB         
1 27800U 81071P   25061.46763367 -.00000850  00000+0  00000+0 0  9992
2 27800  64.3999 121.6732 7043794  37.0539 355.3693  1.97644248184082
COSMOS 1285 DEB         
1 27801U 81071Q   25067.26266542  .00000173  00000+0  00000+0 0  9997
2 27801  64.1170  96.8465 7171044  38.9844 355.3896  1.97981517174343
GSAT-2                  
1 27807U 03018A   25063.38596741 -.00000241  00000+0  00000+0 0  9991
2 27807  10.2579  45.5934 0010816 328.8599 217.5714  0.99846695 79740
HELLAS-SAT 2            
1 27811U 03020A   25067.82615337 -.00000099  00000+0  00000+0 0  9996
2 27811   6.1907  73.4104 0007266 244.4275 136.2963  1.00272138 79675
BEIDOU-1 G3             
1 27813U 03021A   25066.11691103 -.00000006  00000+0  00000+0 0  9993
2 27813  10.4699  45.1235 0017078 290.3595 246.6966  0.99777650 79643
THURAYA-2               
1 27825U 03026A   25068.05112817  .00000112  00000+0  00000+0 0  9993
2 27825   8.1119  33.6024 0007812 326.4353 229.3464  1.00272716 79673
BLOCK DM-SL R/B         
1 27826U 03026B   25067.38119557 -.00000044  00000+0  00000+0 0  9992
2 27826   5.5934 233.3432 6967511   3.1194 357.8553  2.22047532176430
OPTUS C1                
1 27831U 03028B   25067.81572597 -.00000166  00000+0  00000+0 0  9990
2 27831   5.7186  75.0234 0006180 269.5566 271.5796  1.00272754 79657
ARIANE 5 R/B            
1 27832U 03028C   25067.41069314  .00000109  00000+0  13498-2 0  9999
2 27832   7.3375 300.4817 7172811 309.5363   6.5009  2.24827170178579
ARIANE 5 DEB [SYLDA]    
1 27833U 03028D   25067.69577962  .00000025  00000+0  27789-3 0  9999
2 27833   6.9975 295.3710 7150759 323.6914   4.5107  2.26545645179542
GALAXY 23 (G-23)        
1 27854U 03034A   25067.25315794 -.00000003  00000+0  00000+0 0  9994
2 27854   1.9900  85.5479 0002799 268.9469 141.9378  1.00271748 79072
BLOCK DM-SL R/B         
1 27855U 03034B   25068.14836163  .00000109  00000+0  20247-2 0  9996
2 27855   0.4175  48.0892 7142059  19.1468  68.4583  2.24667870177229
USA 170                 
1 27875U 03040A   25066.11890927  .00000117  00000+0  00000+0 0  9999
2 27875   9.5038  52.1907 0001925 332.8166 207.2377  1.00279576 28304
IABS R/B                
1 27877U 03040C   25064.97380679  .00000019  00000+0  00000+0 0  9992
2 27877  13.0244  15.8416 0011220 306.7973  53.1026  1.00743951 21238
COSMOS 917 DEB          
1 27883U 77047F   25067.78629659  .00001382  00000+0  46343-2 0  9990
2 27883  61.6286 298.3219 7317682  41.4132 355.3052  2.02111211165996
COSMOS 917 DEB          
1 27884U 77047G   25066.59862231 -.00001020  00000+0 -44182-3 0  9995
2 27884  61.0634 290.0467 7391004  50.9967 354.2133  2.01724490164572
COSMOS 917 DEB          
1 27887U 77047K   25059.64562581  .00000516  00000+0  00000+0 0  9995
2 27887  64.2293 278.6836 6406434  10.9915   2.9362  1.97914326187923
COSMOS 917 DEB          
1 27888U 77047L   25067.90111377  .00000365  00000+0  44993-2 0  9991
2 27888  61.7495 303.7711 7314885  41.6516 355.2475  2.01958351208801
